GLOBALSTAR M067         
1 32263U 07048A   25238.60852630 -.00000062  00000+0  26420-3 0  9990
2 32263  51.9711 189.8723 0001069 113.7432  57.2536 12.40676295818228
GLOBALSTAR M070         
1 32264U 07048B   25238.35770623 -.00000075  00000+0  16135-3 0  9990
2 32264  51.9741 274.7378 0000177 130.6746 242.0423 12.62321760822533
GLOBALSTAR M066         
1 32265U 07048C   25238.29000388 -.00000071  00000+0  19905-3 0  9992
2 32265  51.9591 184.4705 0004070 137.7017  28.1201 12.30285820823925
GLOBALSTAR M068         
1 32266U 07048D   25238.50726760 -.00000046  00000+0  31957-3 0  9999
2 32266  51.9879  87.8967 0000659 344.8179  44.1012 12.62827291826447
GLOBALSTAR M079         
1 37188U 10054A   25238.51164914 -.00000087  00000+0  95424-4 0  9991
2 37188  52.0036 285.7107 0000657 103.5993  45.5664 12.62266321685339
GLOBALSTAR M074         
1 37189U 10054B   25238.42941456 -.00000085  00000+0  10355-3 0  9993
2 37189  52.0015 285.2744 0000472 130.0783 243.8990 12.62270993685937
GLOBALSTAR M076         
1 37190U 10054C   25238.56681257 -.00000078  00000+0  14621-3 0  9992
2 37190  52.0026 285.0327 0000679 121.2171  37.7576 12.62264949685662
GLOBALSTAR M077         
1 37191U 10054D   25238.28243047 -.00000112  00000+0 -44521-4 0  9996
2 37191  52.0049 242.7633 0000260  99.8421 272.9131 12.62323101686007
